{
  "norad_id": 60497,
  "name": "FLOCK 4BE-32",
  "history": [
    {
      "epoch": "2026-03-28T18:53:04.907904",
      "apogee_km": 451.0154425974133,
      "perigee_km": 445.2416506727586,
      "latitude_deg": -84.77021964570233,
      "longitude_deg": -54.761213440215215,
      "semi_major_axis_km": 6826.265546635086,
      "eccentricity": 0.00042291,
      "inclination_deg": 97.3743,
      "raan_deg": 171.0106,
      "arg_perigee_deg": 183.3043,
      "mean_anomaly_deg": 176.8175,
      "mean_motion_rev_day": 15.39316746
    },
    {
      "epoch": "2026-03-29T04:14:43.805760",
      "apogee_km": 450.90356464233446,
      "perigee_km": 445.1982367949149,
      "latitude_deg": -84.95943044787334,
      "longitude_deg": -17.317993600154296,
      "semi_major_axis_km": 6826.187900718624,
      "eccentricity": 0.0004179,
      "inclination_deg": 97.3741,
      "raan_deg": 171.4034,
      "arg_perigee_deg": 182.742,
      "mean_anomaly_deg": 177.3803,
      "mean_motion_rev_day": 15.3934301
    }
  ]
}